{"spkid": "54017615", "covariance": {"labels": ["e", "q", "tp", "node", "peri", "i"], "data": [["1.77176634327424E-13", "-1.840856984987402E-13", "6.843883420346218E-12", "1.254188919064126E-12", "5.722563543275834E-12", "5.502855431054287E-12"], ["-1.840856984987402E-13", "1.912821213215845E-13", "-7.221988626201406E-12", "-1.333096620920752E-12", "-5.983419514940093E-12", "-5.710016376961308E-12"], ["6.843883420346218E-12", "-7.221988626201406E-12", "1.388013031084514E-9", "3.081465151859626E-10", "6.483997910530715E-10", "1.507390721055986E-10"], ["1.254188919064126E-12", "-1.333096620920752E-12", "3.081465151859626E-10", "2.693356024568968E-10", "-5.559516697181709E-11", "-1.256528646798547E-11"], ["5.722563543275834E-12", "-5.983419514940093E-12", "6.483997910530715E-10", "-5.559516697181709E-11", "5.40842287406567E-10", "1.908764103114929E-10"], ["5.502855431054287E-12", "-5.710016376961308E-12", "1.507390721055986E-10", "-1.256528646798547E-11", "1.908764103114929E-10", "1.90553614189498E-10"]], "elements": [{"label": "e", "sigma": 4.20923549266876e-07, "name": "e", "title": "eccentricity", "value": ".2930528941086135", "units": null}, {"label": "q", "sigma": 4.37358115646188e-07, "name": "q", "units": "au", "value": ".6931852938238561", "title": "perihelion distance"}, {"label": "tp", "name": "tp", "sigma": 3.72560469063012e-05, "title": "time of perihelion passage", "value": "2459542.071462366108", "units": "TDB"}, {"label": "node", "sigma": 1.64114472992755e-05, "name": "om", "units": "deg", "title": "longitude of the ascending node", "value": "127.9108664203177"}, {"label": "peri", "value": "303.1123715780352", "title": "argument of perihelion", "units": "deg", "name": "w", "sigma": 2.32560161551063e-05}, {"label": "i", "sigma": 1.38041158423674e-05, "name": "i", "units": "deg", "value": "13.84741968321212", "title": "inclination"}], "epoch": "2459417.5"}, "elements": [{"label": "e", "sigma": "4.2117E-7", "name": "e", "units": null, "title": "eccentricity", "value": ".2931602202129442"}, {"name": "a", "sigma": "3.4355E-8", "title": "semi-major axis", "value": ".9805995991903352", "units": "au", "label": "a"}, {"label": "q", "units": "au", "value": ".6931268047509718", "title": "perihelion distance", "name": "q", "sigma": "4.3686E-7"}, {"name": "i", "sigma": "1.3825E-5", "title": "inclination; angle with respect to x-y ecliptic plane", "value": "13.84436418601733", "units": "deg", "label": "i"}, {"label": "node", "value": "127.8652879695248", "title": "longitude of the ascending node", "units": "deg", "name": "om", "sigma": "1.6433E-5"}, {"sigma": "2.3503E-5", "name": "w", "units": "deg", "title": "argument of perihelion", "value": "303.1216337660935", "label": "peri"}, {"label": "M", "title": "mean anomaly", "value": "243.1782805198662", "units": "deg", "sigma": "7.5581E-5", "name": "ma"}, {"label": "tp", "sigma": "7.9972E-5", "name": "tp", "value": "2461315.595167014328", "title": "time of perihelion passage", "units": "TDB"}, {"name": "per", "sigma": "1.8639E-5", "units": "d", "title": "sidereal orbital period", "value": "354.6794235656185", "label": "period"}, {"name": "n", "sigma": "5.334E-8", "units": "deg/d", "title": "mean motion", "value": "1.015001085715358", "label": "n"}, {"label": "Q", "sigma": "4.4426E-8", "name": "ad", "title": "aphelion distance", "value": "1.268072393629699", "units": "au"}], "epoch": "2461200.5"}